Venue,Suburb,Postcode,State,Instagram,Posts,Followers,Following
3 Weeds Rozelle,Rozelle,2039,NSW,none,,,
Bald Rock Hotel,Rozelle,2039,NSW,baldrockhotel,,,
Bar-Ber,Balmain,2041,NSW,none,,,
Boydell & Smith Fine Wines,Balmain,2041,NSW,none,,,
Cantina Bar Balmain,Balmain,2041,NSW,cantinabalmain,,,
Cat & Fiddle Hotel,Balmain,2041,NSW,catandfiddlehotel,,,
Corner Bar Rozelle,Rozelle,2039,NSW,cornerbarrozelle,,,
Cricketers Arms Hotel,Balmain,2041,NSW,cricketersarmsbalmain,,,
Dicks Hotel,Balmain,2041,NSW,dickshotelbalmain,,,
Dry Dock Hotel,Balmain,2041,NSW,drydockhotel,,,
East Village Hotel,Balmain East,2041,NSW,evhbalmain,,,
Garry Owen Hotel,Rozelle,2039,NSW,garryowenhotel,,,
Local Bar,Rozelle,2039,NSW,localbarrozelle,,,
Orange Grove Hotel,Lilyfield,2040,NSW,orangegrovehotel,,,
Penny Lane Bar,Rozelle,2039,NSW,pennylanerozelle,,,
Sackville Hotel,Rozelle,2039,NSW,sackvillehotel,,,
The Balmain Hotel,Balmain,2041,NSW,thebalmain,,,
The Bridge Hotel,Rozelle,2039,NSW,bridgehotelrozelle,,,
The Cottage Bar & Kitchen,Balmain,2041,NSW,thecottagebalmain,,,
The Lodge Bar,Balmain,2041,NSW,lodgebarbalmain,,,
The London Hotel,Balmain,2041,NSW,none,,,
The Merton Hotel,Rozelle,2039,NSW,themertonbistro,,,
The Native Rose Hotel,Rozelle,2039,NSW,nativerosehotel,,,
"The Red Lion Hotel, Rozelle",Rozelle,2039,NSW,redlionrozelle,,,
The Riverview Hotel,Balmain,2041,NSW,theriverviewhotel,,,
The Royal Oak,Balmain,2041,NSW,theroyaloak,,,
The Welcome Hotel,Rozelle,2039,NSW,thewelcomehotel,,,
Unity Hall Hotel,Balmain,2041,NSW,unityhallhotel,,,
Wilhelmina's,Balmain,2041,NSW,wilhelminas_balmain,,,
Newtown Hotel,Newtown,2042,NSW,newtown_hotel,,,
Courthouse Hotel,Newtown,2042,NSW,courthousehotel,,,
Coopers Hotel,Newtown,2042,NSW,coopersonking,,,
Town Hall Hotel,Newtown,2042,NSW,thetowniegigs,,,
The Bank,Newtown,2042,NSW,bankhotel,,,
Union Hotel,Newtown,2042,NSW,unionhotelnewtown,,,
The Marlborough Hotel,Newtown,2042,NSW,themarlynewtown,,,
Enmore Hotel,Enmore,2042,NSW,enmore_hotel,,,
Botany View Hotel,Newtown,2042,NSW,bvhnewtown,,,
Carlisle Castle Hotel,Newtown,2042,NSW,carlisle_castle_newtown,,,
Kelly's on King,Newtown,2042,NSW,kellys_on_king,,,
Websters Bar,Newtown,2042,NSW,webstersbarnewtown,,,
The Duke of Enmore,Enmore,2042,NSW,thedukeofenmore,,,
Queens Hotel,Enmore,2042,NSW,queenshotelenmore,,,
Golden Barley Hotel,Enmore,2042,NSW,goldenbarleyhotel,,,
The Warren View Hotel,Enmore,2042,NSW,warrenviewhotel,,,
The Midnight Special,Newtown,2042,NSW,themidnightspecial,,,
Corridor Newtown - Temp Closed,Newtown,2042,NSW,corridornewtown,,,
Earl's Juke Joint,Newtown,2042,NSW,earlsjukejoint,,,
Kuleto's Cocktail Bar,Newtown,2042,NSW,kuletos_cocktail_bar,,,
Blue Fig Bar,Newtown,2042,NSW,bluefigbar,,,
Mary's Newtown,Newtown,2042,NSW,marysgetfat,,,
Sydney Park Hotel,Newtown,2042,NSW,sydneyparkhotel,,,
True Romance Newtown,Newtown,2042,NSW,trueromancenewtown,,,
Fortunate Son,Newtown,2042,NSW,fortunateson_bar,,,
She Loves You,Newtown,2042,NSW,shelovesyoubar,,,
Jacoby’s Tiki Bar,Enmore,2042,NSW,jacobystikibar,,,
Stella's,Newtown,2042,NSW,stellassydney,,,
Secret Garden Bar,Enmore,2042,NSW,secretgardenenmore,,,
1989 Arcade Bar,Newtown,2042,NSW,1989arcadebar,,,
Bar OPPIL,Newtown,2042,NSW,none,,,
Mountain Goat Newtown,Newtown,2042,NSW,goatnewtown,,,
Cottonmouth Records,Enmore,2042,NSW,cottonmouthrecords,,,
Soultrap bar,Surry Hills,2010,NSW,soultrapbar,,,
Button Bar,Surry Hills,2010,NSW,button_bar,,,
Local Bar,Surry Hills,2010,NSW,none,,,
Li'l Darlin Surry Hills,Surry Hills,2010,NSW,lildarlinbar,,,
Vasco,Surry Hills,2010,NSW,vascojoint,,,
The Wild Rover,Surry Hills,2010,NSW,thewildrover_,,,
Tokyo Bird,Surry Hills,2010,NSW,tokyobird_syd,,,
Goros,Surry Hills,2010,NSW,gorosmaryst,,,
The Beresford,Surry Hills,2010,NSW,theberesford,,,
Low 302,Surry Hills,2010,NSW,low302,,,
Keg & Brew,Surry Hills,2010,NSW,kegandbrew,,,
Surly's American Tavern,Surry Hills,2010,NSW,surlys_american_tavern,,,
The Soda Factory,Surry Hills,2010,NSW,thesodafactory,,,
Tio's Cerveceria,Surry Hills,2010,NSW,tios.sydney,,,
Dove & Olive,Surry Hills,2010,NSW,doveandolive,,,
Forrester's,Surry Hills,2010,NSW,forresterssydney,,,
White Horse Hotel,Surry Hills,2010,NSW,white.horse.hotel,,,
The Winery,Surry Hills,2010,NSW,thewinerysurryhills,,,
Trinity Bar,Surry Hills,2010,NSW,trinitybarsydney,,,
Sydney Brewery Surry Hills,Surry Hills,2010,NSW,sydneybrewery,,,
The Carrington,Surry Hills,2010,NSW,thecarringtonsydney,,,
Strawberry Hills Hotel,Surry Hills,2010,NSW,strawberryhillshotel,,,
The Dolphin Hotel,Surry Hills,2010,NSW,thedolphinsurryhills,,,
Hollywood Hotel,Surry Hills,2010,NSW,hotelhollywoodsydney,,,
Golden Age Cinema & Bar,Surry Hills,2010,NSW,ourgoldenage,,,
Bad Mama,Surry Hills,2010,NSW,badmamabar,,,
Madison Hotel,Surry Hills,2010,NSW,none,,,
Rosie Campbell's,Surry Hills,2010,NSW,rosiecampbells,,,
The Cricketers Arms Hotel,Surry Hills,2010,NSW,cricketersarmshotel,,,
El Loco at Excelsior,Surry Hills,2010,NSW,ellocosydney,,,
Royal Albert Hotel,Surry Hills,2010,NSW,royalalberthotel,,,
Nikkei Bar & Restaurant,Surry Hills,2010,NSW,nikkei_sydney,,,
Bartolo,Surry Hills,2010,NSW,bartolowineroom,,,
Pieno,Surry Hills,2010,NSW,none,,,
Molly Malone's Irish Tavern,Surry Hills,2010,NSW,none,,,
Shakespeare Hotel,Surry Hills,2010,NSW,shakespearehotel,,,
Four Pillars Gin Laboratory,Surry Hills,2010,NSW,none,,,
Tilly May's,Surry Hills,2010,NSW,tillymayssydney,,,
The Wizard's Den,Surry Hills,2010,NSW,thewizardsdenau,,,
Aurora Rooftop Hotel,Surry Hills,2010,NSW,aurorarooftophotel,,,
Yulli's,Surry Hills,2010,NSW,yullissurryhills,,,
Evening Star Hotel,Surry Hills,2010,NSW,evening_star_hotel,,,
Bondi Beach Public Bar,Bondi Beach,2026,NSW,bondibeachpublicbar,,,
Neighbourhood Bondi,Bondi Beach,2026,NSW,neighbourhoodbondi,,,
Speakeasy Bar,Bondi Beach,2026,NSW,speakeasybarbondi,,,
Vue Bar,Bondi Beach,2026,NSW,vuebondi,,,
The Anchor Bondi,Bondi Beach,2026,NSW,anchorbarbondi,,,
Salty's Bondi,Bondi Beach,2026,NSW,saltysbondi,,,
La Palma,Bondi Beach,2026,NSW,lapalmabondi,,,
Mojo's Tapas Bar,Bondi Beach,2026,NSW,mojostapasbar,,,
Rosenbaum & Fuller,Bondi Beach,2026,NSW,rosenbaumandfuller,,,
Upstairs,Bondi Beach,2026,NSW,none,,,
Bonnie's Wine & Food,Bondi Beach,2026,NSW,none,,,
Raw Bar,Bondi,2026,NSW,rawbarbondibeach,,,
The Shop & Wine Bar,Bondi Beach,2026,NSW,none,,,
Icebergs Terrace,Bondi Beach,2026,NSW,icebergsdiningroomandbar,,,
Cafe Bikini.,Bondi Beach,2026,NSW,none,,,
Bar Copo,Bondi Beach,2026,NSW,bar.copo,,,
The Bucket List,Bondi Beach,2026,NSW,none,,,
Bondi Liquor Co,Bondi Beach,2026,NSW,none,,,
Bondi Hardware,Bondi Beach,2026,NSW,bondi_hardware,,,
The Royal Bondi,Bondi,2026,NSW,none,,,
Beach Road Hotel,Bondi Beach,2026,NSW,beachroadbondi,,,
North Bondi RSL Club,North Bondi,2026,NSW,northbondirsl,,,
Stuffed Beaver Dining Parlour,Bondi,2026,NSW,none,,,
Madam Chu's,Bondi Beach,2026,NSW,madamchusbondi,,,
UPPER EAST SIDE BONDI,Bondi,2026,NSW,none,,,
Bondi Bowling Club,North Bondi,2026,NSW,bondibowlo,,,
Wake Up! Bondi Beach,Bondi Beach,2026,NSW,none,,,
The Pacific Club Bondi Beach,Bondi Beach,2026,NSW,thepacificclubbondibeach,,,
Rocker,North Bondi,2026,NSW,rockerbondi,,,
Bondi Icebergs CLUB,Bondi Beach,2026,NSW,icebergsclub,,,
Calita Bondi,Bondi Beach,2026,NSW,calitamexican,,,
The Grand Bondi Junction,Bondi Junction,2022,NSW,thegrandbondijunction,,,
Mama Saan,Bondi Beach,2026,NSW,mama_saan,,,
Taqiza,Bondi Beach,2026,NSW,taqizamexican,,,
Nelson Hotel,Bondi Junction,2022,NSW,nelsonhotel,,,
